[{"OBJECT_NAME":"STARLINK-4353","OBJECT_ID":"2022-084AB","EPOCH":"2026-03-09T17:59:23.719776","MEAN_MOTION":15.01262056,"ECCENTRICITY":8.49e-5,"INCLINATION":97.6033,"RA_OF_ASC_NODE":130.2603,"ARG_OF_PERICENTER":92.4598,"MEAN_ANOMALY":267.6723,"EPHEMERIS_TYPE":0,"CLASSIFICATION_TYPE":"U","NORAD_CAT_ID":53214,"ELEMENT_SET_NO":999,"REV_AT_EPOCH":19932,"BSTAR":4.166687e-6,"MEAN_MOTION_DOT":-5.0e-8,"MEAN_MOTION_DDOT":0},{"OBJECT_NAME":"HAWK-8A","OBJECT_ID":"2024-066B","EPOCH":"2026-03-09T09:46:26.156352","MEAN_MOTION":14.98766556,"ECCENTRICITY":0.00042143,"INCLINATION":45.5937,"RA_OF_ASC_NODE":72.3645,"ARG_OF_PERICENTER":254.4969,"MEAN_ANOMALY":105.5447,"EPHEMERIS_TYPE":0,"CLASSIFICATION_TYPE":"U","NORAD_CAT_ID":59443,"ELEMENT_SET_NO":999,"REV_AT_EPOCH":10486,"BSTAR":0.0002089936,"MEAN_MOTION_DOT":2.325e-5,"MEAN_MOTION_DDOT":0}]
